{
  "type": "FeatureCollection",
  "features": [
    {
      "type": "Feature",
      "id": 1,
      "properties": {
        "id": "han",
        "name": "汉",
        "color": "#D9C8A8",
        "capital": "长安",
        "kind": "faction"
      },
      "geometry": {
        "type": "Polygon",
        "coordinates": [
          [
            [
              101.5,
              32.5
            ],
            [
              101.762,
              33.3967
            ],
            [
              102,
              34.3
            ],
            [
              103.3016,
              35.0742
            ],
            [
              104.5,
              36
            ],
            [
              106.0029,
              36.2857
            ],
            [
              107.5,
              36.6
            ],
            [
              108.9774,
              36.1531
            ],
            [
              110.5,
              35.9
            ],
            [
              111.0718,
              35.0399
            ],
            [
              111.5,
              34.1
            ],
            [
              111.1628,
              32.7662
            ],
            [
              111,
              31.4
            ],
            [
              109.7058,
              30.7789
            ],
            [
              108.5,
              30
            ],
            [
              107.5,
              29.6
            ],
            [
              106.5,
              29.2
            ],
            [
              104.9831,
              28.9225
            ],
            [
              103.5,
              28.5
            ],
            [
              102.6878,
              29.3878
            ],
            [
              101.8,
              30.2
            ],
            [
              101.6377,
              31.3484
            ],
            [
              101.5,
              32.5
            ]
          ]
        ]
      }
    },
    {
      "type": "Feature",
      "id": 2,
      "properties": {
        "id": "chu",
        "name": "西楚",
        "color": "#E5C8B8",
        "capital": "彭城",
        "kind": "faction"
      },
      "geometry": {
        "type": "Polygon",
        "coordinates": [
          [
            [
              111.5,
              34.1
            ],
            [
              113.0221,
              34.8058
            ],
            [
              114.5,
              35.6
            ],
            [
              116.0076,
              35.6739
            ],
            [
              117.5,
              35.9
            ],
            [
              118.4023,
              35.3537
            ],
            [
              119.3,
              34.8
            ],
            [
              120.0738,
              34.4301
            ],
            [
              120.9,
              34.2
            ],
            [
              121.0592,
              33.3516
            ],
            [
              121.2,
              32.5
            ],
            [
              120.9941,
              31.7516
            ],
            [
              120.8,
              31
            ],
            [
              120.5973,
              30.5158
            ],
            [
              120.5,
              30
            ],
            [
              119.7425,
              29.9559
            ],
            [
              119,
              29.8
            ],
            [
              118.2303,
              29.926
            ],
            [
              117.5,
              30.2
            ],
            [
              117.1689,
              30.433
            ],
            [
              116.8,
              30.6
            ],
            [
              117.2576,
              31.0972
            ],
            [
              117.8,
              31.5
            ],
            [
              118.5,
              31.75
            ],
            [
              119.2,
              32
            ],
            [
              119.059,
              32.5932
            ],
            [
              119,
              33.2
            ],
            [
              117.7578,
              32.5837
            ],
            [
              116.5,
              32
            ],
            [
              115.2421,
              31.9987
            ],
            [
              114,
              31.8
            ],
            [
              112.4883,
              31.6879
            ],
            [
              111,
              31.4
            ],
            [
              111.1628,
              32.7662
            ],
            [
              111.5,
              34.1
            ]
          ]
        ]
      }
    }
  ]
}
