{
  "type": "FeatureCollection",
  "features": [
    {
      "type": "Feature",
      "id": 1,
      "properties": {
        "id": "wei",
        "name": "魏",
        "color": "#E8D5A3",
        "capital": "洛阳",
        "kind": "faction"
      },
      "geometry": {
        "type": "Polygon",
        "coordinates": [
          [
            [
              102,
              40.8
            ],
            [
              105.2472,
              40.9897
            ],
            [
              108.5,
              41
            ],
            [
              112.2489,
              41.1425
            ],
            [
              116,
              41.2
            ],
            [
              119.254,
              40.8867
            ],
            [
              122.5,
              40.5
            ],
            [
              123.4468,
              39.6791
            ],
            [
              124.5,
              39
            ],
            [
              123.8013,
              37.9615
            ],
            [
              123,
              37
            ],
            [
              122.3091,
              35.9557
            ],
            [
              121.5,
              35
            ],
            [
              120.5442,
              34.1911
            ],
            [
              119.5,
              33.5
            ],
            [
              119.0277,
              32.9248
            ],
            [
              118.5,
              32.4
            ],
            [
              117.4825,
              31.6734
            ],
            [
              116.5,
              30.9
            ],
            [
              115.0033,
              31.0499
            ],
            [
              113.5,
              31
            ],
            [
              111.964,
              31.5101
            ],
            [
              110.5,
              32.2
            ],
            [
              108.4936,
              32.8302
            ],
            [
              106.5,
              33.5
            ],
            [
              104.7492,
              33.2046
            ],
            [
              103,
              32.9
            ],
            [
              102.4179,
              34.4235
            ],
            [
              102,
              36
            ],
            [
              101.7509,
              36.7503
            ],
            [
              101.5,
              37.5
            ],
            [
              101.749,
              39.1502
            ],
            [
              102,
              40.8
            ]
          ]
        ]
      }
    },
    {
      "type": "Feature",
      "id": 2,
      "properties": {
        "id": "shu",
        "name": "蜀",
        "color": "#BCD9C3",
        "capital": "成都",
        "kind": "faction"
      },
      "geometry": {
        "type": "Polygon",
        "coordinates": [
          [
            [
              103,
              32.9
            ],
            [
              104.7492,
              33.2046
            ],
            [
              106.5,
              33.5
            ],
            [
              108.4936,
              32.8302
            ],
            [
              110.5,
              32.2
            ],
            [
              110.3125,
              31.3316
            ],
            [
              110,
              30.5
            ],
            [
              109.2947,
              29.7053
            ],
            [
              108.5,
              29
            ],
            [
              107.2975,
              28.1708
            ],
            [
              106,
              27.5
            ],
            [
              104.7395,
              27.5622
            ],
            [
              103.5,
              27.8
            ],
            [
              102.6535,
              28.6535
            ],
            [
              101.8,
              29.5
            ],
            [
              102.3954,
              31.2016
            ],
            [
              103,
              32.9
            ]
          ]
        ]
      }
    },
    {
      "type": "Feature",
      "id": 3,
      "properties": {
        "id": "wu",
        "name": "吴",
        "color": "#B8CFE0",
        "capital": "建业",
        "kind": "faction"
      },
      "geometry": {
        "type": "Polygon",
        "coordinates": [
          [
            [
              110.5,
              32.2
            ],
            [
              111.964,
              31.5101
            ],
            [
              113.5,
              31
            ],
            [
              115.0033,
              31.0499
            ],
            [
              116.5,
              30.9
            ],
            [
              117.4825,
              31.6734
            ],
            [
              118.5,
              32.4
            ],
            [
              119.4828,
              31.9117
            ],
            [
              120.5,
              31.5
            ],
            [
              121.0946,
              30.7019
            ],
            [
              121.8,
              30
            ],
            [
              121.1499,
              29.0001
            ],
            [
              120.5,
              28
            ],
            [
              119.217,
              27.0412
            ],
            [
              118,
              26
            ],
            [
              116.0297,
              24.3629
            ],
            [
              114,
              22.8
            ],
            [
              112.2256,
              22.3855
            ],
            [
              110.5,
              21.8
            ],
            [
              109.6962,
              22.8633
            ],
            [
              109,
              24
            ],
            [
              109.811,
              25.9771
            ],
            [
              110.5,
              28
            ],
            [
              110.988,
              29.006
            ],
            [
              111.5,
              30
            ],
            [
              110.9118,
              31.0599
            ],
            [
              110.5,
              32.2
            ]
          ]
        ]
      }
    }
  ]
}
