{"type":"FeatureCollection","name":"china-base","features":[{"type":"Feature","properties":{"id":"china-backdrop","title":"Chinese Geographic Silhouette"},"geometry":{"type":"MultiPolygon","coordinates":[[[[110.6855799,20.16008],[110.78192,20.0125299],[110.9332799,20.0117499],[111.04149,19.6421701],[110.8644178,19.5240843],[110.8021553,19.6121608],[110.8365827,19.52959],[110.67596,19.38922],[110.51739,18.9917099],[110.5393601,18.7813301],[110.4136646,18.6602226],[110.19778,18.6183],[110.0495312,18.3833025],[109.9676724,18.3895829],[110.0177499,18.44887],[109.7645483,18.389762],[109.67379,18.2744899],[109.72761,18.2127899],[109.5745801,18.1591801],[109.5720193,18.2568337],[109.48193,18.1882101],[109.45712,18.2822601],[109.1762,18.28623],[108.6872,18.5060501],[108.6226941,19.272991],[109.211417,19.7214702],[109.3017315,19.7003701],[109.28181,19.79141],[109.151063,19.7075251],[109.26213,19.90103],[109.53164,19.8378],[109.5370052,19.9467249],[109.7073399,20.0160601],[109.7115,19.94039],[109.9407099,19.9932701],[110.00634,19.90803],[110.16153,20.0627],[110.3813334,20.0796921],[110.6374886,19.9160491],[110.57136,20.0921001],[110.6855799,20.16086],[110.6855799,20.16008]]],[[[123.4711029,53.5002727],[123.8793642,53.4807228],[124.8725485,53.0970063],[124.968478,53.1944137],[125.2043734,53.193159],[125.6143374,53.0780475],[125.741989,52.9838361],[125.6654624,52.8611685],[125.8295396,52.8953718],[125.9392957,52.7632283],[126.1050202,52.7702062],[125.9632754,52.6224645],[126.1921035,52.537775],[126.3348328,52.3033095],[126.4316939,52.2916503],[126.3003969,52.2061976],[126.5542316,52.1303242],[126.4566193,51.9440509],[126.7237853,51.7170351],[126.6695403,51.5987236],[126.8386267,51.5285068],[126.7812918,51.4350724],[126.9146727,51.3902115],[126.8252372,51.2721215],[126.9773291,51.3202094],[126.9176588,51.0570394],[127.3002242,50.7452574],[127.325288,50.3351467],[127.6056331,50.2347146],[127.4889337,50.012711],[127.5408951,49.8009946],[127.8428066,49.5744854],[128.7527745,49.593385],[128.7431887,49.4830985],[128.9836595,49.4569225],[129.0734497,49.3535964],[129.500653,49.4246771],[129.5593003,49.2894625],[129.71048,49.2910916],[129.9137906,49.0424922],[130.2242955,48.865247],[130.6693459,48.8771033],[130.5210615,48.6131615],[130.6255707,48.4884678],[130.7581971,48.4972857],[130.8356469,48.301678],[130.6544234,48.0959682],[130.8804506,47.9178204],[130.9674545,47.7086448],[132.5487282,47.7143226],[132.666225,47.9558781],[132.8157923,47.935005],[133.0494733,48.1048743],[133.5224731,48.121542],[133.7464041,48.2567535],[134.5012575,48.4252932],[134.7662016,48.3640449],[134.5436285,47.9887551],[134.7703977,47.7151355],[134.5631321,47.4784451],[134.1693339,47.3183854],[134.2222345,47.1179925],[134.055723,46.9750543],[134.0134943,46.6658861],[133.8415316,46.4723322],[133.9401648,46.3995158],[133.8615561,46.3435795],[133.9107072,46.2634815],[133.6880023,46.15563],[133.6684747,45.9409946],[133.4616556,45.835693],[133.4693452,45.6194379],[133.1339229,45.4272582],[133.1324658,45.1253341],[132.9501371,45.0151103],[132.6292198,45.2982936],[132.2773422,45.3424929],[131.9977211,45.2516385],[131.875606,45.341505],[131.486276,44.966268],[130.960509,44.852819],[131.1044767,44.7075263],[131.3032214,44.0439331],[131.186897,43.558276],[131.311365,43.395416],[131.095619,43.021124],[131.137532,42.934039],[130.395082,42.726139],[130.5846736,42.6698892],[130.5529531,42.5189833],[130.6370088,42.4183323],[130.5169765,42.6138797],[130.4486266,42.546597],[130.2527953,42.7062975],[130.2619645,42.903417],[129.9004137,43.0050334],[129.7041956,42.4269074],[129.6091551,42.4617088],[129.5454999,42.3601805],[129.3487999,42.452644],[129.1927981,42.3146359],[129.221569,42.2049803],[128.9147807,42.0098204],[128.0312399,41.995489],[128.3107777,41.599443],[128.1081162,41.3606435],[127.9325151,41.4561898],[127.6506399,41.4034446],[127.2512445,41.4787698],[127.0976205,41.5431257],[127.1784339,41.5923203],[126.9413657,41.8067948],[126.7909529,41.6909177],[126.6942613,41.7487062],[126.5632433,41.6108798],[126.5301894,41.3527486],[126.1178362,41.0880017],[126.018275,40.9013094],[125.7621592,40.8898837],[125.4148805,40.6279447],[125.2772245,40.654231],[125.0082626,40.5247803],[125.0351334,40.4602852],[124.8949641,40.479921],[124.403158,40.1332512],[124.1405646,39.746155],[124.1209624,39.8366933],[123.6534101,39.83834],[123.5416938,39.749157],[123.2652796,39.7553164],[123.2128838,39.6565594],[122.7512399,39.60264],[122.8013021,39.564309],[122.494216,39.4026812],[122.2871899,39.3724201],[122.0685701,39.19137],[122.16391,39.1525499],[122.02783,39.1304299],[122.0630201,39.06266],[121.8375759,39.0432772],[121.9057599,38.9649704],[121.6563404,39.0156923],[121.6042188,38.9287211],[121.6957101,38.86601],[121.22852,38.8032299],[121.1957599,38.72287],[121.094266,38.9277431],[121.66005,39.08544],[121.58962,39.2710501],[121.9268655,39.4031036],[121.5466425,39.3129325],[121.4498533,39.4334436],[121.2436,39.38831],[121.5681757,39.5495934],[121.4722381,39.8076828],[121.8885801,39.99919],[121.82615,40.0281],[122.2773274,40.4740912],[122.1549567,40.6830428],[121.8433599,40.8219],[121.8572899,40.9897335],[121.69875,40.88942],[121.75246,40.8394299],[121.66185,40.9072201],[121.54567,40.81981],[121.5008399,40.9201301],[120.9666971,40.8267645],[120.9217282,40.7371318],[121.0267406,40.7097881],[120.8251999,40.67473],[120.44482,40.19688],[119.568116,39.922001],[119.5293425,39.8093264],[119.4043699,39.78718],[119.2479599,39.5857701],[119.2893607,39.3987973],[119.037558,39.1818998],[118.8878094,39.1198971],[118.9813391,39.1887322],[118.753017,39.1335987],[118.5266001,39.2100001],[118.5760393,39.1108919],[118.4766224,39.0555237],[118.6473374,39.0452177],[118.5150768,38.9185585],[118.4612331,39.021383],[118.4182385,38.9596406],[118.4549362,39.0455426],[118.4038751,38.9666044],[118.2394931,39.0419272],[118.0616048,39.2290838],[117.81935,39.1657601],[117.818946,39.0731972],[117.72211,39.10837],[117.834894,39.0011981],[117.7143609,38.9884055],[117.8804403,38.9288289],[117.716731,38.9687798],[117.8453212,38.8732335],[117.6186419,38.8409236],[117.6088495,38.7146009],[117.7194604,38.7074924],[117.574207,38.6140474],[117.7627127,38.3280604],[117.9328422,38.3769553],[117.8408028,38.2757647],[117.9529799,38.1916201],[118.1179811,38.2765869],[118.0357,38.0919001],[118.3254978,38.1219303],[118.4022199,38.0366],[118.4671774,38.0992688],[118.54969,38.00739],[118.63088,38.1263701],[118.7781099,38.0697701],[118.8892942,38.1370659],[119.0732136,37.8335444],[119.2566571,37.8097932],[119.3101716,37.6357211],[119.0338288,37.6880413],[118.9059,37.52662],[119.0146911,37.1952897],[119.1020817,37.2573116],[119.1387871,37.1613784],[119.1943878,37.2465271],[119.1636,37.0733299],[119.2065071,37.2232145],[119.2870165,37.1961802],[119.2404801,37.0716499],[119.3953546,37.153959],[119.5537874,37.0526138],[119.74907,37.1222],[119.90473,37.2674301],[119.83789,37.36999],[120.3117801,37.60513],[120.2163816,37.6886577],[120.7358825,37.8323875],[121.13746,37.7122401],[121.1754075,37.5838229],[121.4307948,37.5996703],[121.3732009,37.5547595],[121.5711901,37.43369],[122.1178855,37.5643342],[122.1710294,37.4282294],[122.7056,37.39598],[122.55259,37.35054],[122.6232,37.19408],[122.4500401,37.1155601],[122.4376901,37.0218201],[122.57397,37.0410601],[122.5143099,36.8963101],[122.1744341,36.8416667],[122.24833,36.90285],[122.1153079,36.8959315],[122.1706,37.05947],[122.1410801,36.9480201],[122.03998,36.8935599],[121.98962,37.00155],[121.6263399,36.8080599],[121.64393,36.7354301],[121.4798099,36.77853],[121.5984101,36.85127],[121.44695,36.84823],[121.3965007,36.703618],[121.1810701,36.7108801],[121.0140701,36.5792599],[120.7712674,36.6340988],[120.9748401,36.5387799],[120.8871101,36.3756801],[120.8236045,36.4669856],[120.68563,36.39995],[120.7143401,36.1348799],[120.2827966,36.0444401],[120.3216436,36.2560748],[120.3080794,36.1884234],[120.1123503,36.188635],[120.063634,36.1397513],[120.29726,35.9695],[120.0653099,35.88456],[120.01333,35.7220999],[119.9163499,35.76081],[119.9165401,35.63622],[119.6522421,35.5957272],[119.5503295,35.354241],[119.41162,35.3027101],[119.3900296,35.0970573],[119.1703201,34.9511899],[119.22288,34.78771],[119.49513,34.7579799],[119.3652101,34.7614901],[119.5138839,34.7311215],[119.44387,34.67598],[119.63854,34.50942],[120.27451,34.3002201],[120.7329761,33.3373764],[120.8645399,33.2297824],[120.8973699,32.686],[121.3733067,32.4265745],[121.4657534,32.2350526],[121.3631342,32.2032162],[121.7343519,32.0577013],[121.9367407,31.7333516],[121.8108301,31.6864104],[121.2992691,31.8856009],[121.1051139,31.7842767],[121.2997509,31.5200657],[121.72531,31.2823599],[121.9728433,30.8919532],[121.4831,30.81203],[121.0158,30.57535],[120.7935994,30.2943054],[120.6592203,30.3604822],[120.8817348,30.1683321],[121.3164624,30.3623052],[121.66286,29.99768],[122.1332896,29.9017072],[121.70101,29.5611201],[121.42683,29.4675001],[121.5229112,29.4794034],[121.4895,29.3837013],[121.7218599,29.54049],[121.80762,29.4760899],[121.7946991,29.6052891],[121.9957999,29.5885],[121.9654498,29.2167074],[121.7861199,29.16983],[121.81104,29.38405],[121.7477005,29.1503057],[121.539622,29.2779029],[121.6051877,29.1399096],[121.4202498,29.1471224],[121.6487801,29.1057599],[121.52734,28.99672],[121.71055,29.0137801],[121.7012501,28.91479],[121.5139301,28.94102],[121.68156,28.8656001],[121.65994,28.71723],[121.51074,28.6629499],[121.66998,28.3479699],[121.5856699,28.2483401],[121.41694,28.30475],[121.3629223,28.1416088],[121.2933943,28.1084817],[121.2859831,28.1939862],[121.29162,28.0712401],[121.1549461,28.0369491],[121.27476,28.3630999],[121.1742812,28.3945759],[121.071561,28.2901723],[121.13344,28.2467701],[121.0074108,28.0102035],[120.8217833,27.9882099],[120.8719765,27.8723775],[120.6018227,27.5940851],[120.6954044,27.481855],[120.6449498,27.3644313],[120.5412494,27.4016142],[120.5193401,27.1952899],[120.18577,27.2748701],[120.1950497,27.2005483],[120.3578299,27.2395201],[120.43983,27.1511699],[120.2555041,27.1078696],[120.26306,26.9907201],[120.1581313,26.974929],[120.2271899,26.91365],[120.03692,26.89641],[120.13475,26.7981501],[120.11753,26.6345199],[119.83801,26.52008],[120.0748699,26.8036101],[119.92827,26.78919],[119.8673901,26.64811],[119.7856999,26.7096699],[119.8531899,26.8520701],[119.7273101,26.70462],[119.5526223,26.7625041],[119.6428,26.73485],[119.5602974,26.6168158],[119.7835899,26.58597],[119.8290599,26.4507301],[119.6202229,26.4735626],[119.6725461,26.3439165],[119.83565,26.4291501],[119.8587055,26.3510287],[119.95697,26.3763799],[119.59075,26.2412601],[119.6733297,26.2335258],[119.5188601,26.0849],[119.7149999,26.0136801],[119.5813501,25.87844],[119.5952501,25.6900799],[119.4608,25.68957],[119.5971301,25.5893499],[119.6455223,25.347471],[119.56151,25.46177],[119.485,25.36613],[119.49879,25.46157],[119.435984,25.4170995],[119.33506,25.6082],[119.34517,25.4339199],[119.25875,25.5006299],[119.1119,25.42651],[119.3659901,25.2491201],[119.2703099,25.1707699],[119.1228699,25.2604],[119.1038599,25.1117299],[119.02677,25.14348],[119.0769878,25.23862],[118.9762201,25.2253699],[119.01773,25.2866299],[118.85499,25.2433401],[118.9798272,25.1950085],[118.8723899,25.0539399],[119.0108099,25.05696],[119.0275899,24.96078],[118.8808499,24.95294],[118.9810199,24.8801301],[118.71592,24.8483401],[118.67331,24.96015],[118.6805397,24.8616478],[118.6032086,24.8722917],[118.78061,24.77182],[118.6513501,24.6817901],[118.65311,24.55801],[118.5557348,24.514985],[118.4405999,24.7173899],[118.41937,24.6057799],[118.2297457,24.5307709],[118.1746496,24.6658092],[118.08833,24.5665577],[118.1937022,24.5283574],[118.1319589,24.4239439],[118.0829703,24.568117],[118.0413765,24.4410918],[117.7851899,24.49744],[117.9102401,24.3946599],[118.06498,24.40969],[118.13776,24.2664401],[117.9437101,24.20156],[117.7726299,23.91417],[117.77412,24.0500099],[117.69751,24.0437799],[117.59069,23.71963],[117.57513,23.9032],[117.3564701,23.95409],[117.4839901,23.90662],[117.4752299,23.79893],[117.30261,23.7965199],[117.2779099,23.6287301],[117.2221677,23.6916085],[117.1327862,23.5620992],[116.9053003,23.6029225],[116.797615,23.286419],[116.54438,23.40924],[116.7434501,23.24366],[116.55386,23.1598099],[116.5056501,22.94316],[116.2870899,22.95764],[115.81611,22.74104],[115.64497,22.87237],[115.5255124,22.771815],[115.60063,22.7526799],[115.5704579,22.6539979],[115.38158,22.6890999],[115.3423873,22.7737246],[115.4144126,22.7858639],[115.2608117,22.8282535],[115.0475899,22.78973],[114.97858,22.6885001],[114.88029,22.76765],[114.9698501,22.6787401],[114.8842699,22.5444599],[114.89387,22.6237199],[114.7334843,22.5970567],[114.7794977,22.8388563],[114.5275114,22.7095435],[114.5015392,22.6472288],[114.59526,22.65245],[114.4987832,22.5555539],[114.6230199,22.5121099],[114.5089399,22.45031],[114.3883929,22.6147459],[113.8868932,22.4464333],[113.7472802,22.7490518],[113.5568515,22.7501913],[113.6085384,22.5750553],[113.53808,22.39799],[113.6265268,22.375302],[113.5549742,22.0800646],[113.3649754,22.1531114],[113.3548247,21.9848641],[113.2612831,22.0829986],[113.2618863,21.8778937],[113.0304068,22.1388885],[112.9830201,21.89012],[112.912667,21.8446652],[112.77108,21.94569],[112.5648099,21.7543299],[112.4241124,21.8278788],[112.5088601,21.9501099],[112.4083699,21.9028599],[112.39951,22.0687199],[112.40453,21.7368501],[112.2541116,21.6977646],[112.2058199,21.83007],[112.0205298,21.7919308],[111.9145399,21.68467],[112.0187296,21.6341123],[111.85955,21.562147],[111.91345,21.6864801],[111.7134314,21.7639465],[111.7881476,21.6172362],[111.6454699,21.51625],[111.47373,21.5048499],[111.43104,21.5844],[111.25895,21.4153301],[111.30556,21.48477],[111.03128,21.5306299],[111.00348,21.44462],[111.08519,21.46675],[110.88744,21.3858799],[110.5889126,21.3751472],[110.6364,21.23308],[110.44403,21.1895499],[110.50117,21.3030301],[110.4250801,21.29686],[110.3801799,21.4563501],[110.3171101,21.4149099],[110.4238501,21.2255301],[110.3122,21.11001],[110.54723,21.0667701],[110.5268199,20.92689],[110.4130601,21.0026301],[110.2008401,20.94511],[110.3111,21.11001],[110.1614801,20.92574],[110.20802,20.83082],[110.3852801,20.8193101],[110.3011996,20.6559188],[110.46083,20.6783201],[110.48387,20.5793801],[110.38847,20.6050701],[110.5324601,20.47393],[110.2833499,20.24337],[110.0508501,20.29351],[109.91896,20.22322],[109.86172,20.4036201],[109.9803601,20.3461599],[110.0104685,20.4265863],[109.8207399,20.51253],[109.7368099,20.6648801],[109.82867,20.7093],[109.6646599,20.937],[109.75361,21.3449799],[109.95544,21.34893],[109.94373,21.48675],[109.8119201,21.4580399],[109.75231,21.5779701],[109.75443,21.4595601],[109.6746,21.4973],[109.69146,21.6112299],[109.61558,21.57136],[109.55327,21.6924701],[109.60287,21.74772],[109.49114,21.70813],[109.5977379,21.5370542],[109.5497972,21.4775274],[109.2509599,21.43073],[109.2430501,21.49409],[109.155387,21.4028074],[109.042536,21.4500594],[109.14116,21.59003],[108.850091,21.6837988],[108.90492,21.78849],[108.8257824,21.8118178],[108.86489,21.6253201],[108.74279,21.60158],[108.7179601,21.74458],[108.6800465,21.6001086],[108.67776,21.80372],[108.6272388,21.6955927],[108.56158,21.78918],[108.6391499,21.88089],[108.5913,21.9559801],[108.4741799,21.8714901],[108.5733572,21.6670303],[108.47442,21.5580999],[108.3907701,21.56015],[108.4398299,21.6947101],[108.3288029,21.5961619],[108.31323,21.6772699],[108.21783,21.4992],[108.2262335,21.6272938],[108.1250746,21.5169442],[107.955988,21.536504],[107.857497,21.654913],[107.3620891,21.5996819],[107.3010528,21.742649],[107.0087618,21.827864],[107.023811,21.94478],[106.6904962,21.9643304],[106.6906142,22.2777144],[106.559923,22.348441],[106.557473,22.45882],[106.8278165,22.813645],[106.5256754,22.9485012],[106.285692,22.867401],[106.130828,22.999053],[105.8757111,22.9167657],[105.725491,23.064587],[105.5720938,23.0723119],[105.323146,23.393395],[105.230582,23.27239],[104.795151,23.128641],[104.863605,22.949473],[104.7329406,22.8233362],[104.578495,22.85825],[104.373902,22.690207],[104.2646322,22.8475806],[104.1165156,22.8120928],[103.9775842,22.5067634],[103.659323,22.789495],[103.529319,22.59299],[103.327316,22.813929],[103.071433,22.446906],[102.501589,22.780304],[102.263391,22.412907],[102.045618,22.458051],[101.898882,22.381146],[101.779925,22.501644],[101.685783,22.477138],[101.537844,22.246469],[101.833533,21.613757],[101.748338,21.587846],[101.733657,21.322866],[101.844671,21.252605],[101.765258,21.145371],[101.548006,21.256287],[101.291981,21.175478],[101.215805,21.230121],[101.271694,21.366286],[101.181284,21.418118],[101.1186784,21.7768796],[100.5789873,21.4512756],[100.4309302,21.5414692],[100.1307086,21.5071087],[100.1688297,21.6662554],[100.0341776,21.6755751],[99.9437847,21.824006],[99.971924,22.059284],[99.1562788,22.1632597],[99.3822385,22.4961939],[99.314749,22.739341],[99.462111,22.847335],[99.441191,22.9424],[99.56603,22.933009],[99.510494,23.084681],[98.885252,23.182777],[98.921029,23.420806],[98.801806,23.539592],[98.890889,23.617458],[98.808173,23.769481],[98.672154,23.806514],[98.675456,23.963758],[98.8798324,24.1540682],[98.1089079,24.0951104],[97.6458514,23.8435303],[97.5281828,23.9293905],[97.7692064,24.2642502],[97.6663379,24.3001866],[97.6694958,24.4563518],[97.5284672,24.4367034],[97.5468636,24.7420199],[97.797036,24.85152],[97.720692,25.084203],[97.839723,25.2727],[97.944186,25.217615],[98.137938,25.386988],[98.167347,25.625569],[98.315065,25.548659],[98.53258,25.847399],[98.707927,25.859875],[98.573048,26.121296],[98.720174,26.130272],[98.676517,26.279289],[98.782209,26.605335],[98.7071,27.558821],[98.441956,27.669042],[98.428582,27.551534],[98.317123,27.52312],[98.141178,28.143531],[97.908947,28.368307],[97.797115,28.329639],[97.663623,28.538381],[97.501872,28.494954],[97.5174576,28.3299645],[97.345948,28.214658],[97.125772,28.361187],[96.92352,28.353041],[96.654851,28.609015],[96.489157,28.434469],[96.408126,28.509372],[96.610136,28.708205],[96.589261,28.817788],[96.367377,29.109276],[96.198539,29.023355],[96.299455,29.190837],[96.0536283,29.3823784],[95.262616,29.06834],[94.807259,29.164868],[94.693603,29.317934],[94.293217,29.152312],[94.366375,29.025931],[94.260509,28.931677],[93.712243,28.664707],[93.308219,28.592657],[92.921611,28.20069],[92.67733,28.15096],[92.729574,27.978233],[92.455818,27.793335],[92.241065,27.885713],[91.87676,27.721657],[91.5637871,27.82732],[91.6255951,27.892111],[91.338926,28.065683],[91.2030239,27.985453],[90.6914729,28.080781],[90.5845651,28.022915],[89.79295,28.246551],[89.5096991,28.093698],[89.0055709,27.567183],[88.9707938,27.305403],[88.7768269,27.4692925],[88.8881208,27.8564067],[88.8364582,28.0146199],[88.6333677,28.1226411],[88.4135914,27.981077],[88.1424595,27.9652766],[88.111894,27.867275],[87.829683,27.952443],[87.724301,27.805035],[87.156821,27.8245956],[86.715515,28.108609],[86.563074,28.110078],[86.411367,27.906236],[86.226295,27.98129],[86.186388,28.173806],[86.0811892,28.090602],[86.1246978,27.9277009],[86.000154,27.911588],[85.711978,28.385833],[85.608295,28.256302],[85.1195935,28.3363515],[85.187019,28.642005],[85.058169,28.682478],[84.8566532,28.5708093],[84.485721,28.736595],[84.2262376,28.89306],[84.202402,29.236222],[84.094248,29.292947],[83.902897,29.326981],[83.578888,29.178893],[83.277872,29.569912],[82.827557,29.690319],[82.549835,29.963806],[82.171975,30.065456],[82.08167,30.362086],[81.407786,30.420928],[81.395534,30.206888],[81.256975,30.150769],[81.250622,30.015085],[81.133392,30.015387],[81.004624,30.263625],[80.211384,30.584509],[80.178223,30.806774],[79.752312,31.005804],[79.600909,30.938809],[79.427466,31.022924],[79.142343,31.432088],[78.893663,31.287718],[78.768439,31.326309],[78.720455,31.508868],[78.846641,31.609164],[78.702103,31.806491],[78.779628,31.993593],[78.488363,32.275637],[78.3928427,32.5392422],[78.739516,32.695747],[78.779367,32.479016],[78.968287,32.33574],[79.276039,32.556002],[79.413331,32.520026],[79.4607388,32.7100065],[79.1385176,33.0249251],[79.163905,33.173476],[78.6816356,33.6551042],[78.7766009,33.7445298],[78.6611892,34.0845791],[78.9076035,34.141595],[79.0538284,34.3211139],[78.7097062,34.5258831],[78.272983,34.6297702],[78.2014758,34.9730838],[78.0047863,35.2307783],[78.1140462,35.474112],[77.1940114,35.5218414],[76.758768,35.664107],[76.5864961,35.77555],[76.5558349,35.927243],[76.164885,35.822729],[76.1009378,36.016186],[75.941964,36.070845],[76.061984,36.227331],[75.864847,36.669735],[75.6403229,36.770324],[75.4546241,36.722443],[75.3995239,36.955057],[75.140645,37.026747],[74.9082769,36.929445],[74.839072,37.058568],[74.495463,37.064791],[74.501097,37.239352],[74.882519,37.220997],[75.1281781,37.3207558],[75.1252838,37.4660283],[74.8970217,37.6618361],[75.0106693,37.7754837],[74.9145973,37.8511622],[74.9164752,38.0245825],[74.6979387,38.2281642],[74.6954183,38.425102],[74.1868886,38.6402797],[73.9982408,38.5218773],[73.8014705,38.6138425],[73.6945568,38.8528902],[73.8441725,38.9996377],[73.5000261,39.3802431],[73.8738476,39.4828942],[73.9490409,39.6218845],[73.832208,39.7816191],[73.9373385,40.0327442],[74.3689664,40.1032427],[74.6916965,40.3498523],[74.9014454,40.3377327],[74.7876023,40.4522324],[74.8377744,40.5220452],[75.2228344,40.4446744],[75.6027621,40.6632564],[75.7236068,40.4728394],[75.699612,40.2800837],[76.2726098,40.4389239],[76.3399975,40.3392595],[76.5378048,40.4650466],[76.6400132,40.7618267],[76.8688413,41.0245386],[77.7651781,41.0147841],[77.8315392,41.1502823],[78.1226319,41.2270764],[78.1563984,41.3818774],[78.6450769,41.4685484],[79.3227743,41.8107657],[79.772259,41.8930161],[79.8800132,42.0343954],[80.2098891,42.0426668],[80.1312877,42.1683376],[80.2836512,42.2354386],[80.2045022,42.4285447],[80.2749777,42.5176184],[80.1746004,42.6683681],[80.2765682,42.8377817],[80.6010006,42.8927988],[80.4085192,43.05736],[80.8072807,43.1772719],[80.7785317,43.311382],[80.6831687,43.3286842],[80.7509765,43.4690373],[80.3942647,44.1120308],[80.4104826,44.610393],[80.1639574,44.8415649],[79.9993673,44.7904463],[79.8819854,44.9106776],[80.0900778,45.0469461],[80.8966106,45.1246983],[81.7316375,45.3747061],[81.9220346,45.228887],[82.5601012,45.2034839],[82.5428316,45.4209581],[82.2579086,45.6165769],[82.3356564,45.9391583],[82.4561069,45.9771683],[83.031327,47.2232667],[83.9069039,46.9747689],[84.7362061,47.0140686],[84.944232,46.8628509],[85.2168977,47.0523679],[85.559008,47.0504224],[85.7029578,47.3800725],[85.6078088,47.5090493],[85.5593334,48.1494464],[85.7782593,48.4119911],[86.588783,48.541948],[86.819222,48.833126],[86.728784,48.994148],[86.896697,49.134858],[87.427347,49.071318],[87.8145375,49.1701827],[87.900523,48.984192],[87.742774,48.867607],[88.089893,48.710979],[87.97103,48.572527],[88.516326,48.398328],[88.588709,48.215444],[89.062006,47.987302],[89.5788,48.032941],[89.758819,47.826089],[90.056622,47.88554],[90.123464,47.731776],[90.370406,47.654882],[90.559031,47.206174],[90.903799,46.953718],[91.048399,46.719828],[91.074933,46.557606],[90.892338,46.313476],[91.021993,46.022309],[90.71282,45.725378],[90.6685055,45.5519658],[90.883794,45.189268],[91.122238,45.214054],[91.558608,45.068318],[93.502765,44.967541],[94.725229,44.337774],[94.999519,44.249982],[95.407737,44.294069],[95.32298,44.02698],[95.522625,44.003374],[95.877645,43.276337],[96.359415,42.899481],[96.385808,42.724006],[97.1725969,42.7949997],[99.5034766,42.566121],[100.8642459,42.6690543],[101.7955737,42.4992316],[102.074512,42.2226355],[102.7067675,42.1487753],[103.3856964,41.887989],[103.8639908,41.7996483],[104.5249329,41.8733826],[104.5183487,41.6622009],[105.0112076,41.5804176],[105.6969376,41.9309082],[107.4531784,42.4566612],[108.8385315,42.395607],[109.5284805,42.4674568],[110.429863,42.7755585],[111.006073,43.3220062],[111.9469705,43.6907533],[111.8739319,43.9322395],[111.4092865,44.344635],[111.7261429,44.9287224],[111.9713821,45.0836105],[112.4255066,45.0741653],[112.756813,44.8625717],[113.625633,44.742385],[114.1333771,44.9666595],[114.4561768,45.2060776],[114.5469971,45.3825226],[115.6874466,45.4526749],[116.2805636,45.7703899],[116.2646302,45.9612181],[116.592489,46.299863],[116.838564,46.383298],[117.36834,46.360697],[117.413715,46.578715],[117.713516,46.513478],[118.300868,46.738346],[118.789591,46.685662],[118.896858,46.775786],[119.300639,46.608732],[119.678455,46.584793],[119.9004448,46.668156],[119.921322,46.901621],[119.708097,47.193368],[119.142807,47.5423672],[119.1216812,47.6640396],[118.7548218,47.7720795],[118.5549316,47.9934616],[117.8049667,48.0141899],[117.3751831,47.6400414],[116.8197708,47.8948708],[116.2534181,47.8782756],[115.9353307,47.6812306],[115.5705116,47.9190934],[115.5203698,48.1529043],[115.8134079,48.2588654],[115.7869701,48.519881],[116.071373,48.8193779],[116.7112958,49.8418325],[117.8681243,49.5083177],[117.8930641,49.595316],[118.1655237,49.6589839],[118.5669371,49.9300495],[119.0840802,49.9842595],[119.2860746,50.1093519],[119.3791216,50.320407],[119.1425077,50.3909882],[119.2742485,50.6034177],[119.7563281,51.0905866],[119.7524792,51.2126993],[119.9395708,51.3608422],[120.0803649,51.6783186],[120.64758,51.9227252],[120.7795085,52.1585155],[120.6142057,52.3534646],[120.7222806,52.5439742],[120.4589993,52.6434643],[120.0619671,52.5860533],[120.0266437,52.776256],[120.8782846,53.2934914],[121.2265357,53.279163],[122.3270112,53.5015648],[123.4628172,53.5095023],[123.4711029,53.5002727]],[[118.8509506,31.2417055],[118.8633316,31.243485],[118.8632029,31.2439895],[118.8569909,31.2428062],[118.8509506,31.2417055]],[[118.8452267,31.2354584],[118.8445991,31.2375271],[118.8392776,31.2360501],[118.8408976,31.2338668],[118.8452267,31.2354584]],[[118.845613,31.2353346],[118.8410532,31.233665],[118.8421315,31.2319036],[118.8463318,31.233509],[118.845613,31.2353346]],[[118.840152,31.2313164],[118.8389182,31.2329219],[118.8361609,31.2319219],[118.8373518,31.2303165],[118.840152,31.2313164]],[[118.841933,31.2314908],[118.8411069,31.2274082],[118.8403988,31.2285917],[118.8432419,31.229766],[118.841933,31.2314908]],[[118.8453018,31.2384765],[118.8467127,31.2394535],[118.8461065,31.2393388],[118.8452857,31.2389673],[118.8453018,31.2384765]]]]}}]}