{
  "type": "FeatureCollection",
  "name": "dynasties",
  "features": [
    {
      "type": "Feature",
      "properties": { "id": "primordial", "name": "上古", "start_year": -5000, "end_year": -2070, "color": "#EEDC9A" },
      "geometry": { "type": "Polygon", "coordinates": [ [ [109.0, 37.5], [114.5, 37.8], [115.8, 34.8], [113.6, 33.8], [110.6, 33.2], [108.6, 34.2], [108.4, 35.8], [109.0, 37.5] ] ] }
    },
    {
      "type": "Feature",
      "properties": { "id": "xia", "name": "夏", "start_year": -2070, "end_year": -1600, "color": "#D4C2D6" },
      "geometry": { "type": "Polygon", "coordinates": [ [ [109.5, 38.0], [115.0, 38.2], [116.6, 35.0], [114.0, 33.6], [110.8, 33.0], [108.8, 34.4], [108.8, 36.2], [109.5, 38.0] ] ] }
    },
    {
      "type": "Feature",
      "properties": { "id": "shang", "name": "商", "start_year": -1600, "end_year": -1046, "color": "#C2D6C5" },
      "geometry": { "type": "Polygon", "coordinates": [ [ [109.0, 38.6], [116.4, 38.8], [118.6, 35.6], [115.6, 32.4], [111.2, 32.2], [108.4, 33.4], [107.8, 35.6], [109.0, 38.6] ] ] }
    },
    {
      "type": "Feature",
      "properties": { "id": "western-zhou", "name": "西周", "start_year": -1046, "end_year": -771, "color": "#E6B4B0" },
      "geometry": { "type": "Polygon", "coordinates": [ [ [106.0, 38.2], [117.0, 39.0], [120.4, 36.0], [119.8, 33.0], [113.6, 31.2], [109.4, 31.4], [106.4, 32.8], [105.4, 35.2], [106.0, 38.2] ] ] }
    },
    {
      "type": "Feature",
      "properties": { "id": "spring-autumn", "name": "春秋", "start_year": -771, "end_year": -453, "color": "#B8CFDD" },
      "geometry": { "type": "Polygon", "coordinates": [ [ [104.8, 39.0], [118.4, 39.6], [122.2, 36.8], [121.6, 31.8], [116.0, 29.6], [110.2, 29.4], [106.2, 31.0], [103.6, 33.6], [103.4, 36.4], [104.8, 39.0] ] ] }
    },
    {
      "type": "Feature",
      "properties": { "id": "warring-states", "name": "战国", "start_year": -453, "end_year": -221, "color": "#D4C2D6" },
      "geometry": { "type": "Polygon", "coordinates": [ [ [103.0, 41.0], [120.0, 41.4], [124.4, 38.6], [123.6, 33.4], [119.6, 28.6], [112.0, 26.8], [108.0, 27.2], [104.4, 29.6], [102.4, 32.8], [102.2, 37.4], [103.0, 41.0] ] ] }
    },
    {
      "type": "Feature",
      "properties": { "id": "qin", "name": "秦", "start_year": -221, "end_year": -202, "color": "#C2D6C5" },
      "geometry": { "type": "Polygon", "coordinates": [ [ [102.6, 41.4], [119.6, 41.6], [124.6, 39.0], [124.0, 33.6], [120.0, 28.4], [112.4, 26.4], [108.0, 26.8], [104.2, 29.4], [102.0, 32.6], [101.8, 37.6], [102.6, 41.4] ] ] }
    },
    {
      "type": "Feature",
      "properties": { "id": "chu-han", "name": "楚汉相争", "start_year": -202, "end_year": -200, "color": "#EEDC9A" },
      "geometry": { "type": "Polygon", "coordinates": [ [ [102.0, 41.2], [119.8, 41.4], [124.8, 38.8], [124.2, 33.4], [120.2, 28.2], [112.6, 26.2], [108.0, 26.6], [104.0, 29.2], [101.8, 32.4], [101.6, 37.4], [102.0, 41.2] ] ] }
    },
    {
      "type": "Feature",
      "properties": { "id": "western-han", "name": "西汉", "start_year": -202, "end_year": 8, "color": "#E6B4B0" },
      "geometry": { "type": "Polygon", "coordinates": [ [ [98.0, 40.8], [118.0, 41.2], [125.0, 39.2], [125.2, 33.8], [121.4, 27.8], [113.0, 25.4], [107.6, 26.0], [103.0, 28.8], [99.8, 32.0], [98.4, 36.4], [98.0, 40.8] ] ] }
    },
    {
      "type": "Feature",
      "properties": { "id": "eastern-han", "name": "东汉", "start_year": 8, "end_year": 190, "color": "#B8CFDD" },
      "geometry": { "type": "Polygon", "coordinates": [ [ [99.4, 41.0], [118.4, 41.4], [125.6, 39.4], [125.8, 33.6], [122.0, 27.4], [113.6, 25.0], [107.8, 25.6], [103.2, 28.6], [100.2, 31.8], [99.0, 36.2], [99.4, 41.0] ] ] }
    },
    {
      "type": "Feature",
      "properties": { "id": "late-eastern-han", "name": "东汉末", "start_year": 190, "end_year": 220, "color": "#EEDC9A" },
      "geometry": { "type": "Polygon", "coordinates": [ [ [99.4, 41.0], [118.4, 41.4], [125.6, 39.4], [125.8, 33.6], [122.0, 27.4], [113.6, 25.0], [107.8, 25.6], [103.2, 28.6], [100.2, 31.8], [99.0, 36.2], [99.4, 41.0] ] ] }
    },
    {
      "type": "Feature",
      "properties": { "id": "three-kingdoms-wei", "name": "魏", "start_year": 220, "end_year": 280, "color": "#E6B4B0" },
      "geometry": { "type": "Polygon", "coordinates": [ [ [99.4, 41.4], [118.4, 41.6], [125.8, 39.4], [125.6, 33.8], [122.2, 31.6], [112.8, 31.8], [103.6, 32.4], [100.4, 34.8], [99.2, 38.0], [99.4, 41.4] ] ] }
    },
    {
      "type": "Feature",
      "properties": { "id": "three-kingdoms-shu", "name": "蜀", "start_year": 220, "end_year": 280, "color": "#C2D6C5" },
      "geometry": { "type": "Polygon", "coordinates": [ [ [101.6, 32.4], [108.6, 32.6], [110.6, 31.2], [110.4, 28.4], [107.6, 25.6], [103.4, 26.0], [101.4, 28.4], [101.6, 32.4] ] ] }
    },
    {
      "type": "Feature",
      "properties": { "id": "three-kingdoms-wu", "name": "吴", "start_year": 220, "end_year": 280, "color": "#B8CFDD" },
      "geometry": { "type": "Polygon", "coordinates": [ [ [112.8, 31.8], [122.2, 31.4], [122.6, 27.4], [114.0, 24.4], [109.4, 24.6], [107.8, 26.6], [109.2, 29.2], [112.8, 31.8] ] ] }
    },
    {
      "type": "Feature",
      "properties": { "id": "western-jin", "name": "西晋", "start_year": 280, "end_year": 317, "color": "#D4C2D6" },
      "geometry": { "type": "Polygon", "coordinates": [ [ [99.4, 41.0], [118.4, 41.4], [125.6, 39.4], [125.8, 33.6], [122.0, 27.4], [113.6, 25.0], [107.8, 25.6], [103.2, 28.6], [100.2, 31.8], [99.0, 36.2], [99.4, 41.0] ] ] }
    },
    {
      "type": "Feature",
      "properties": { "id": "eastern-jin", "name": "东晋", "start_year": 317, "end_year": 420, "color": "#E6B4B0" },
      "geometry": { "type": "Polygon", "coordinates": [ [ [108.4, 33.8], [122.4, 33.4], [123.0, 27.6], [114.4, 24.6], [109.6, 24.8], [107.8, 27.2], [108.4, 30.4], [108.4, 33.8] ] ] }
    },
    {
      "type": "Feature",
      "properties": { "id": "southern-northern-dynasties-north", "name": "北朝", "start_year": 420, "end_year": 589, "color": "#EEDC9A" },
      "geometry": { "type": "Polygon", "coordinates": [ [ [99.0, 41.2], [118.4, 41.6], [125.8, 39.6], [125.6, 34.4], [122.2, 32.2], [112.6, 32.4], [103.4, 32.8], [100.2, 35.0], [99.0, 38.2], [99.0, 41.2] ] ] }
    },
    {
      "type": "Feature",
      "properties": { "id": "southern-northern-dynasties-south", "name": "南朝", "start_year": 420, "end_year": 589, "color": "#B8CFDD" },
      "geometry": { "type": "Polygon", "coordinates": [ [ [112.6, 32.4], [122.2, 32.0], [122.8, 27.4], [114.0, 24.2], [109.4, 24.4], [107.8, 26.8], [109.2, 29.4], [112.6, 32.4] ] ] }
    },
    {
      "type": "Feature",
      "properties": { "id": "sui", "name": "隋", "start_year": 589, "end_year": 618, "color": "#E6B4B0" },
      "geometry": { "type": "Polygon", "coordinates": [ [ [99.0, 41.2], [118.6, 41.6], [125.8, 39.6], [125.6, 33.8], [121.8, 27.6], [113.4, 25.2], [107.8, 25.6], [103.2, 28.6], [100.0, 31.8], [98.8, 36.2], [99.0, 38.2] ] ] }
    }
  ]
}
