{
  "type": "FeatureCollection",
  "features": [
    {
      "id": 1,
      "type": "Feature",
      "properties": {
        "id": "guanzhong",
        "name": "关中",
        "subtitle": "帝王基业",
        "color": "#EDE0C8",
        "label_position": [
          108.7,
          34.4
        ],
        "focus_zoom": 6.4
      },
      "geometry": {
        "type": "Polygon",
        "coordinates": [
          [
            [
              105.521,
              34.924
            ],
            [
              106.4101,
              35.3966
            ],
            [
              106.3931,
              35.4347
            ],
            [
              107.316,
              36.0111
            ],
            [
              108.3066,
              35.9414
            ],
            [
              108.2891,
              35.8505
            ],
            [
              109.3703,
              35.8223
            ],
            [
              110.157,
              35.5699
            ],
            [
              110.1747,
              35.6571
            ],
            [
              110.8716,
              35.2683
            ],
            [
              111.0672,
              34.8353
            ],
            [
              110.9411,
              34.8185
            ],
            [
              110.978,
              34.3663
            ],
            [
              110.4401,
              34.005
            ],
            [
              110.3462,
              34.2599
            ],
            [
              109.8304,
              33.7409
            ],
            [
              109.0283,
              33.4322
            ],
            [
              109.0209,
              33.5386
            ],
            [
              108.1206,
              33.4315
            ],
            [
              106.9666,
              33.7917
            ],
            [
              106.9726,
              33.57
            ],
            [
              105.9383,
              33.7006
            ],
            [
              105.8285,
              34.3561
            ],
            [
              105.7104,
              34.3098
            ],
            [
              105.521,
              34.924
            ]
          ]
        ]
      }
    },
    {
      "id": 2,
      "type": "Feature",
      "properties": {
        "id": "zhongyuan",
        "name": "中原",
        "subtitle": "兵家必争",
        "color": "#F7D2C4",
        "label_position": [
          114.6,
          34.3
        ],
        "focus_zoom": 6
      },
      "geometry": {
        "type": "Polygon",
        "coordinates": [
          [
            [
              110.622,
              34.2332
            ],
            [
              111.5435,
              34.8463
            ],
            [
              111.5738,
              34.7729
            ],
            [
              112.5911,
              35.2864
            ],
            [
              113.7107,
              35.6093
            ],
            [
              113.7273,
              35.5181
            ],
            [
              114.885,
              35.7668
            ],
            [
              115.9866,
              35.3012
            ],
            [
              115.9737,
              35.2462
            ],
            [
              117.0569,
              35.0113
            ],
            [
              117.4704,
              34.1452
            ],
            [
              117.4786,
              34.1505
            ],
            [
              117.9781,
              33.3677
            ],
            [
              117.4085,
              32.7146
            ],
            [
              117.4815,
              32.6432
            ],
            [
              116.8312,
              32.0421
            ],
            [
              115.1577,
              31.8765
            ],
            [
              115.1622,
              31.9115
            ],
            [
              113.3666,
              32.1538
            ],
            [
              112.0064,
              32.5072
            ],
            [
              111.9921,
              32.4069
            ],
            [
              110.7301,
              32.8255
            ],
            [
              110.6094,
              33.5242
            ],
            [
              110.8332,
              33.5415
            ],
            [
              110.622,
              34.2332
            ]
          ]
        ]
      }
    },
    {
      "id": 3,
      "type": "Feature",
      "properties": {
        "id": "jiangnan",
        "name": "江南",
        "subtitle": "水乡与诗词",
        "color": "#D9E2F3",
        "label_position": [
          120,
          30.6
        ],
        "focus_zoom": 6.2
      },
      "geometry": {
        "type": "Polygon",
        "coordinates": [
          [
            [
              117.7166,
              32.8374
            ],
            [
              118.5377,
              32.065
            ],
            [
              118.712,
              32.3443
            ],
            [
              119.8621,
              31.8935
            ],
            [
              120.8313,
              31.4832
            ],
            [
              120.8305,
              31.4803
            ],
            [
              121.6876,
              31.0853
            ],
            [
              122.0849,
              30.6031
            ],
            [
              122.1986,
              30.7316
            ],
            [
              122.4986,
              30.1713
            ],
            [
              121.8436,
              29.6474
            ],
            [
              121.8923,
              29.5814
            ],
            [
              121.2264,
              29.0032
            ],
            [
              120.3314,
              28.7313
            ],
            [
              120.3415,
              28.6614
            ],
            [
              119.3697,
              28.6015
            ],
            [
              118.3916,
              28.8793
            ],
            [
              118.3969,
              28.8958
            ],
            [
              117.5363,
              29.3569
            ],
            [
              117.0566,
              30.0764
            ],
            [
              117.1648,
              30.1507
            ],
            [
              116.7027,
              30.8402
            ],
            [
              117.1439,
              31.8761
            ],
            [
              117.2439,
              31.8272
            ],
            [
              117.7166,
              32.8374
            ]
          ]
        ]
      }
    },
    {
      "id": 4,
      "type": "Feature",
      "properties": {
        "id": "bashu",
        "name": "巴蜀",
        "subtitle": "天府盆地",
        "color": "#E2D8E8",
        "label_position": [
          105,
          30.5
        ],
        "focus_zoom": 6.2
      },
      "geometry": {
        "type": "Polygon",
        "coordinates": [
          [
            [
              102.5541,
              31.6843
            ],
            [
              103.6139,
              32.0829
            ],
            [
              103.5998,
              32.124
            ],
            [
              104.6808,
              32.6311
            ],
            [
              105.6962,
              32.5666
            ],
            [
              105.6657,
              32.3385
            ],
            [
              106.7238,
              32.4286
            ],
            [
              107.5723,
              31.8639
            ],
            [
              107.7444,
              32.2525
            ],
            [
              108.4472,
              31.4806
            ],
            [
              108.4603,
              30.6951
            ],
            [
              108.3641,
              30.7108
            ],
            [
              108.2515,
              29.934
            ],
            [
              107.7135,
              29.3133
            ],
            [
              107.7068,
              29.3196
            ],
            [
              107.1558,
              28.6919
            ],
            [
              106.165,
              28.5262
            ],
            [
              106.2499,
              28.2473
            ],
            [
              105.2499,
              28.1449
            ],
            [
              103.9134,
              28.8208
            ],
            [
              104.0271,
              28.9756
            ],
            [
              102.9469,
              29.9405
            ],
            [
              102.5812,
              30.775
            ],
            [
              102.7125,
              30.8116
            ],
            [
              102.5541,
              31.6843
            ]
          ]
        ]
      }
    },
    {
      "id": 5,
      "type": "Feature",
      "properties": {
        "id": "yanzhao",
        "name": "燕赵",
        "subtitle": "燕赵悲歌",
        "color": "#D8E3D8",
        "label_position": [
          116,
          38.6
        ],
        "focus_zoom": 6
      },
      "geometry": {
        "type": "Polygon",
        "coordinates": [
          [
            [
              113.7017,
              39.6954
            ],
            [
              114.7157,
              40.4093
            ],
            [
              114.8182,
              39.9879
            ],
            [
              115.9641,
              40.4171
            ],
            [
              116.858,
              40.2403
            ],
            [
              116.8587,
              40.2476
            ],
            [
              117.7421,
              40.168
            ],
            [
              118.4383,
              39.7086
            ],
            [
              118.4635,
              39.7534
            ],
            [
              119.1115,
              39.2607
            ],
            [
              119.3473,
              38.4117
            ],
            [
              119.2297,
              38.3878
            ],
            [
              119.4112,
              37.5383
            ],
            [
              117.9651,
              37.0788
            ],
            [
              118.0042,
              36.9115
            ],
            [
              116.4147,
              36.5805
            ],
            [
              115.3373,
              36.2189
            ],
            [
              115.2886,
              36.3567
            ],
            [
              114.2586,
              36.0315
            ],
            [
              113.8972,
              36.9657
            ],
            [
              113.9646,
              36.9827
            ],
            [
              113.6838,
              37.9592
            ],
            [
              113.5748,
              38.8305
            ],
            [
              113.8848,
              38.8347
            ],
            [
              113.7017,
              39.6954
            ]
          ]
        ]
      }
    },
    {
      "id": 6,
      "type": "Feature",
      "properties": {
        "id": "jingchu",
        "name": "荆楚",
        "subtitle": "江湖云梦",
        "color": "#CBE3D5",
        "label_position": [
          112.6,
          29.8
        ],
        "focus_zoom": 6
      },
      "geometry": {
        "type": "Polygon",
        "coordinates": [
          [
            [
              108.1141,
              31.0909
            ],
            [
              109.2679,
              31.3654
            ],
            [
              109.2556,
              31.4241
            ],
            [
              110.4518,
              31.8609
            ],
            [
              111.619,
              31.7903
            ],
            [
              111.6358,
              31.9486
            ],
            [
              112.7864,
              31.635
            ],
            [
              113.7348,
              31.2991
            ],
            [
              113.5994,
              30.979
            ],
            [
              114.4932,
              30.6636
            ],
            [
              114.2847,
              29.7903
            ],
            [
              114.3823,
              29.7775
            ],
            [
              114.278,
              28.8872
            ],
            [
              113.5775,
              28.3339
            ],
            [
              113.4936,
              28.4973
            ],
            [
              112.7555,
              27.9434
            ],
            [
              111.784,
              28.2659
            ],
            [
              111.7605,
              28.1855
            ],
            [
              110.6668,
              28.3312
            ],
            [
              109.5939,
              29.099
            ],
            [
              109.5002,
              28.8729
            ],
            [
              108.5035,
              29.5545
            ],
            [
              108.3149,
              30.3338
            ],
            [
              108.3074,
              30.3314
            ],
            [
              108.1141,
              31.0909
            ]
          ]
        ]
      }
    },
    {
      "id": 7,
      "type": "Feature",
      "properties": {
        "id": "qilu",
        "name": "齐鲁",
        "subtitle": "孔孟泰山",
        "color": "#FCE8D5",
        "label_position": [
          119.2,
          36.6
        ],
        "focus_zoom": 6.2
      },
      "geometry": {
        "type": "Polygon",
        "coordinates": [
          [
            [
              115.9647,
              37.6473
            ],
            [
              116.9877,
              37.9592
            ],
            [
              116.9691,
              38.0331
            ],
            [
              118.0304,
              38.3698
            ],
            [
              119.153,
              38.4072
            ],
            [
              119.1374,
              38.2546
            ],
            [
              120.3305,
              38.3014
            ],
            [
              121.5493,
              37.9585
            ],
            [
              121.4579,
              37.6046
            ],
            [
              122.6372,
              37.4365
            ],
            [
              122.7551,
              37.0628
            ],
            [
              122.7181,
              37.0516
            ],
            [
              122.8393,
              36.6813
            ],
            [
              121.9227,
              36.3161
            ],
            [
              122.0309,
              35.9951
            ],
            [
              120.9965,
              35.8621
            ],
            [
              119.7845,
              35.3328
            ],
            [
              119.7593,
              35.421
            ],
            [
              118.4841,
              35.1898
            ],
            [
              117.3521,
              35.6935
            ],
            [
              117.4053,
              35.8146
            ],
            [
              116.3643,
              36.3549
            ],
            [
              116.2089,
              37.0219
            ],
            [
              116.0968,
              36.9815
            ],
            [
              115.9647,
              37.6473
            ]
          ]
        ]
      }
    },
    {
      "id": 8,
      "type": "Feature",
      "properties": {
        "id": "hexi",
        "name": "河西走廊",
        "subtitle": "丝路驼铃",
        "color": "#E5E0CE",
        "label_position": [
          100.8,
          38.9
        ],
        "focus_zoom": 5.4
      },
      "geometry": {
        "type": "Polygon",
        "coordinates": [
          [
            [
              93.5827,
              40.7347
            ],
            [
              94.9859,
              40.7652
            ],
            [
              94.9855,
              40.7791
            ],
            [
              96.3909,
              40.8683
            ],
            [
              97.9116,
              40.8021
            ],
            [
              97.8801,
              40.5654
            ],
            [
              99.527,
              40.7075
            ],
            [
              101.0908,
              40.3816
            ],
            [
              101.088,
              40.3423
            ],
            [
              102.4173,
              40.1344
            ],
            [
              103.4398,
              40.0202
            ],
            [
              103.4097,
              39.8572
            ],
            [
              104.42,
              39.6984
            ],
            [
              104.5983,
              39.1836
            ],
            [
              104.5392,
              39.1647
            ],
            [
              104.7147,
              38.6522
            ],
            [
              103.9304,
              38.1555
            ],
            [
              104.1143,
              37.9482
            ],
            [
              103.3828,
              37.3775
            ],
            [
              98.9387,
              38.6426
            ],
            [
              98.8996,
              38.4694
            ],
            [
              94.6801,
              39.9075
            ],
            [
              94.0549,
              40.2139
            ],
            [
              94.1546,
              40.356
            ],
            [
              93.5827,
              40.7347
            ]
          ]
        ]
      }
    }
  ]
}
